start=new Date('2023-02-02T00:00:00.000Z').valueOf();
sats=[{"EPOCH":"2023-02-01T03:59:29.037120","COUNTRY_CODE":"US","TLE_LINE1":"1 53781U 22111J   23032.16630830  .00001227  00000-0  95127-4 0  9998","APOAPSIS":"540.483","OBJECT_TYPE":"PAYLOAD","RCS_SIZE":"LARGE","MEAN_MOTION":"15.08855452","PERIOD":"95.437","OBJECT_NAME":"STARLINK-4462","ECCENTRICITY":"0.00011350","TIME_SYSTEM":"UTC","MEAN_ANOMALY":"277.5824","NORAD_CAT_ID":"53781","FILE":"3767525","LAUNCH_DATE":"2022-09-11","CENTER_NAME":"EARTH","MEAN_MOTION_DOT":"0.00001227","ARG_OF_PERICENTER":"82.5297","DECAY_DATE":null,"PERIAPSIS":"538.913","CLASSIFICATION_TYPE":"U","ELEMENT_SET_NO":"999","REV_AT_EPOCH":"2272","MEAN_ELEMENT_THEORY":"SGP4","INCLINATION":"53.2180","MEAN_MOTION_DDOT":"0.0000000000000","REF_FRAME":"TEME","BSTAR":"0.00009512700000","SEMIMAJOR_AXIS":"6917.833","SITE":"AFETR","EPHEMERIS_TYPE":"0","TLE_LINE2":"2 53781  53.2180 318.2062 0001135  82.5297 277.5824 15.08855452 22721","RA_OF_ASC_NODE":"318.2062","OBJECT_ID":"2022-111J","GP_ID":"224199709"},{"MEAN_MOTION":"15.08844738","PERIOD":"95.437","OBJECT_NAME":"STARLINK-4679","TIME_SYSTEM":"UTC","ECCENTRICITY":"0.00011400","NORAD_CAT_ID":"53782","MEAN_ANOMALY":"246.7243","EPOCH":"2023-02-01T02:34:43.200480","COUNTRY_CODE":"US","TLE_LINE1":"1 53782U 22111K   23032.10744445  .00000845  00000-0  71142-4 0  9997","RCS_SIZE":"LARGE","APOAPSIS":"540.520","OBJECT_TYPE":"PAYLOAD","REF_FRAME":"TEME","BSTAR":"0.00007114200000","SEMIMAJOR_AXIS":"6917.866","MEAN_MOTION_DDOT":"0.0000000000000","EPHEMERIS_TYPE":"0","SITE":"AFETR","RA_OF_ASC_NODE":"318.5575","OBJECT_ID":"2022-111K","TLE_LINE2":"2 53782  53.2176 318.5575 0001140 113.3869 246.7243 15.08844738 22710","GP_ID":"224199959","MEAN_MOTION_DOT":"0.00000845","CENTER_NAME":"EARTH","FILE":"3767525","LAUNCH_DATE":"2022-09-11","DECAY_DATE":null,"PERIAPSIS":"538.942","ARG_OF_PERICENTER":"113.3869","ELEMENT_SET_NO":"999","CLASSIFICATION_TYPE":"U","REV_AT_EPOCH":"2271","INCLINATION":"53.2176","MEAN_ELEMENT_THEORY":"SGP4"},{"GP_ID":"224200711","RA_OF_ASC_NODE":"318.1622","OBJECT_ID":"2022-111L","TLE_LINE2":"2 53783  53.2184 318.1622 0001189  79.1350 280.9776 15.08853341 22728","EPHEMERIS_TYPE":"0","SITE":"AFETR","SEMIMAJOR_AXIS":"6917.840","REF_FRAME":"TEME","BSTAR":"0.00097577000000","MEAN_MOTION_DDOT":"0.0000000000000","REV_AT_EPOCH":"2272","MEAN_ELEMENT_THEORY":"SGP4","INCLINATION":"53.2184","ELEMENT_SET_NO":"999","CLASSIFICATION_TYPE":"U","DECAY_DATE":null,"PERIAPSIS":"538.882","ARG_OF_PERICENTER":"79.1350","MEAN_MOTION_DOT":"0.00015281","CENTER_NAME":"EARTH","FILE":"3767525","LAUNCH_DATE":"2022-09-11","NORAD_CAT_ID":"53783","MEAN_ANOMALY":"280.9776","TIME_SYSTEM":"UTC","ECCENTRICITY":"0.00011890","OBJECT_NAME":"STARLINK-4536","PERIOD":"95.437","MEAN_MOTION":"15.08853341","RCS_SIZE":"LARGE","OBJECT_TYPE":"PAYLOAD","APOAPSIS":"540.527","TLE_LINE1":"1 53783U 22111L   23032.15896252  .00015281  00000-0  97577-3 0  9996","COUNTRY_CODE":"US","EPOCH":"2023-02-01T03:48:54.361728"},{"REV_AT_EPOCH":"2272","INCLINATION":"53.2166","MEAN_ELEMENT_THEORY":"SGP4","CLASSIFICATION_TYPE":"U","ELEMENT_SET_NO":"999","ARG_OF_PERICENTER":"91.4802","PERIAPSIS":"538.889","DECAY_DATE":null,"FILE":"3767525","CENTER_NAME":"EARTH","LAUNCH_DATE":"2022-09-11","MEAN_MOTION_DOT":"0.00005330","GP_ID":"224200462","TLE_LINE2":"2 53784  53.2166 318.2387 0001171  91.4802 268.6324 15.08855138 22726","RA_OF_ASC_NODE":"318.2387","OBJECT_ID":"2022-111M","SITE":"AFETR","EPHEMERIS_TYPE":"0","MEAN_MOTION_DDOT":"0.0000000000000","SEMIMAJOR_AXIS":"6917.834","BSTAR":"0.00035260000000","REF_FRAME":"TEME","OBJECT_TYPE":"PAYLOAD","APOAPSIS":"540.509","RCS_SIZE":"LARGE","TLE_LINE1":"1 53784U 22111M   23032.17000135  .00005330  00000-0  35260-3 0  9991","COUNTRY_CODE":"US","EPOCH":"2023-02-01T04:04:48.116640","MEAN_ANOMALY":"268.6324","NORAD_CAT_ID":"53784","ECCENTRICITY":"0.00011710","TIME_SYSTEM":"UTC","OBJECT_NAME":"STARLINK-4687","MEAN_MOTION":"15.08855138","PERIOD":"95.437"},{"REF_FRAME":"TEME","BSTAR":"0.00000704360000","SEMIMAJOR_AXIS":"6917.883","MEAN_MOTION_DDOT":"0.0000000000000","SITE":"AFETR","EPHEMERIS_TYPE":"0","RA_OF_ASC_NODE":"308.1252","OBJECT_ID":"2022-111P","TLE_LINE2":"2 53786  53.2186 308.1252 0002029  89.0953 271.0272 15.08838987 22860","GP_ID":"224199210","MEAN_MOTION_DOT":"-0.00000176","FILE":"3767525","CENTER_NAME":"EARTH","LAUNCH_DATE":"2022-09-11","DECAY_DATE":null,"PERIAPSIS":"538.345","ARG_OF_PERICENTER":"89.0953","CLASSIFICATION_TYPE":"U","ELEMENT_SET_NO":"999","REV_AT_EPOCH":"2286","INCLINATION":"53.2186","MEAN_ELEMENT_THEORY":"SGP4","PERIOD":"95.438","MEAN_MOTION":"15.08838987","OBJECT_NAME":"STARLINK-4631","ECCENTRICITY":"0.00020290","TIME_SYSTEM":"UTC","NORAD_CAT_ID":"53786","MEAN_ANOMALY":"271.0272","EPOCH":"2023-02-01T03:09:10.572768","COUNTRY_CODE":"US","TLE_LINE1":"1 53786U 22111P   23032.13137237 -.00000176  00000-0  70436-5 0  9993","RCS_SIZE":"LARGE","APOAPSIS":"541.152","OBJECT_TYPE":"PAYLOAD"},{"MEAN_MOTION_DDOT":"0.0000000000000","BSTAR":"0.00037143000000","REF_FRAME":"TEME","SEMIMAJOR_AXIS":"6917.820","EPHEMERIS_TYPE":"0","SITE":"AFETR","TLE_LINE2":"2 53787  53.2181 317.8184 0001298  80.4174 279.6965 15.08859905 22736","RA_OF_ASC_NODE":"317.8184","OBJECT_ID":"2022-111Q","GP_ID":"224199460","FILE":"3767525","LAUNCH_DATE":"2022-09-11","CENTER_NAME":"EARTH","MEAN_MOTION_DOT":"0.00005631","ARG_OF_PERICENTER":"80.4174","PERIAPSIS":"538.787","DECAY_DATE":null,"CLASSIFICATION_TYPE":"U","ELEMENT_SET_NO":"999","INCLINATION":"53.2181","REV_AT_EPOCH":"2273","MEAN_ELEMENT_THEORY":"SGP4","PERIOD":"95.436","MEAN_MOTION":"15.08859905","OBJECT_NAME":"STARLINK-4743","TIME_SYSTEM":"UTC","ECCENTRICITY":"0.00012980","MEAN_ANOMALY":"279.6965","NORAD_CAT_ID":"53787","EPOCH":"2023-02-01T05:13:39.134784","COUNTRY_CODE":"US","TLE_LINE1":"1 53787U 22111Q   23032.21781406  .00005631  00000-0  37143-3 0  9992","APOAPSIS":"540.582","OBJECT_TYPE":"PAYLOAD","RCS_SIZE":"LARGE"},{"MEAN_ANOMALY":"280.8516","NORAD_CAT_ID":"53789","TIME_SYSTEM":"UTC","ECCENTRICITY":"0.00014000","OBJECT_NAME":"STARLINK-4666","PERIOD":"95.437","MEAN_MOTION":"15.08848934","OBJECT_TYPE":"PAYLOAD","APOAPSIS":"540.687","RCS_SIZE":"LARGE","TLE_LINE1":"1 53789U 22111S   23032.74130548 -.00011536  00000-0 -70770-3 0  9993","EPOCH":"2023-02-01T17:47:28.793472","COUNTRY_CODE":"US","GP_ID":"224203071","TLE_LINE2":"2 53789  53.2175 315.4053 0001400  79.2633 280.8516 15.08848934 22007","RA_OF_ASC_NODE":"315.4053","OBJECT_ID":"2022-111S","SITE":"AFETR","EPHEMERIS_TYPE":"0","MEAN_MOTION_DDOT":"0.0000000000000","REF_FRAME":"TEME","BSTAR":"-0.00070770000000","SEMIMAJOR_AXIS":"6917.853","MEAN_ELEMENT_THEORY":"SGP4","REV_AT_EPOCH":"2200","INCLINATION":"53.2175","CLASSIFICATION_TYPE":"U","ELEMENT_SET_NO":"999","ARG_OF_PERICENTER":"79.2633","PERIAPSIS":"538.750","DECAY_DATE":null,"LAUNCH_DATE":"2022-09-11","FILE":"3767632","CENTER_NAME":"EARTH","MEAN_MOTION_DOT":"-0.00011536"},{"OBJECT_NAME":"STARLINK-4734","MEAN_MOTION":"15.08849258","PERIOD":"95.437","MEAN_ANOMALY":"273.0661","NORAD_CAT_ID":"53790","TIME_SYSTEM":"UTC","ECCENTRICITY":"0.00012620","TLE_LINE1":"1 53790U 22111T   23032.22149742  .00000436  00000-0  45477-4 0  9996","COUNTRY_CODE":"US","EPOCH":"2023-02-01T05:18:57.377088","APOAPSIS":"540.590","OBJECT_TYPE":"PAYLOAD","RCS_SIZE":"LARGE","SITE":"AFETR","EPHEMERIS_TYPE":"0","MEAN_MOTION_DDOT":"0.0000000000000","SEMIMAJOR_AXIS":"6917.852","BSTAR":"0.00004547700000","REF_FRAME":"TEME","GP_ID":"224204898","TLE_LINE2":"2 53790  53.2184 317.8455 0001262  87.0476 273.0661 15.08849258 21924","RA_OF_ASC_NODE":"317.8455","OBJECT_ID":"2022-111T","ARG_OF_PERICENTER":"87.0476","DECAY_DATE":null,"PERIAPSIS":"538.844","FILE":"3767695","CENTER_NAME":"EARTH","LAUNCH_DATE":"2022-09-11","MEAN_MOTION_DOT":"0.00000436","REV_AT_EPOCH":"2192","MEAN_ELEMENT_THEORY":"SGP4","INCLINATION":"53.2184","ELEMENT_SET_NO":"999","CLASSIFICATION_TYPE":"U"},{"INCLINATION":"53.2190","REV_AT_EPOCH":"2272","MEAN_ELEMENT_THEORY":"SGP4","CLASSIFICATION_TYPE":"U","ELEMENT_SET_NO":"999","PERIAPSIS":"538.903","DECAY_DATE":null,"ARG_OF_PERICENTER":"84.4652","MEAN_MOTION_DOT":"-0.00000112","FILE":"3767525","LAUNCH_DATE":"2022-09-11","CENTER_NAME":"EARTH","GP_ID":"224199710","OBJECT_ID":"2022-111V","RA_OF_ASC_NODE":"317.7971","TLE_LINE2":"2 53792  53.2190 317.7971 0001170  84.4652 275.6473 15.08850826 22721","EPHEMERIS_TYPE":"0","SITE":"AFETR","REF_FRAME":"TEME","BSTAR":"0.00001104200000","SEMIMAJOR_AXIS":"6917.847","MEAN_MOTION_DDOT":"0.0000000000000","RCS_SIZE":"LARGE","OBJECT_TYPE":"PAYLOAD","APOAPSIS":"540.522","TLE_LINE1":"1 53792U 22111V   23032.21412700 -.00000112  00000-0  11042-4 0  9997","EPOCH":"2023-02-01T05:08:20.572800","COUNTRY_CODE":"US","NORAD_CAT_ID":"53792","MEAN_ANOMALY":"275.6473","ECCENTRICITY":"0.00011700","TIME_SYSTEM":"UTC","OBJECT_NAME":"STARLINK-4739","PERIOD":"95.437","MEAN_MOTION":"15.08850826"},{"RCS_SIZE":"LARGE","APOAPSIS":"540.511","OBJECT_TYPE":"PAYLOAD","COUNTRY_CODE":"US","EPOCH":"2023-02-01T01:46:58.124640","TLE_LINE1":"1 53793U 22111W   23032.07428385 -.00000419  00000-0 -82528-5 0  9997","ECCENTRICITY":"0.00011410","TIME_SYSTEM":"UTC","NORAD_CAT_ID":"53793","MEAN_ANOMALY":"282.6992","MEAN_MOTION":"15.08847610","PERIOD":"95.437","OBJECT_NAME":"STARLINK-4728","ELEMENT_SET_NO":"999","CLASSIFICATION_TYPE":"U","INCLINATION":"53.2193","REV_AT_EPOCH":"2270","MEAN_ELEMENT_THEORY":"SGP4","MEAN_MOTION_DOT":"-0.00000419","CENTER_NAME":"EARTH","FILE":"3767525","LAUNCH_DATE":"2022-09-11","DECAY_DATE":null,"PERIAPSIS":"538.933","ARG_OF_PERICENTER":"77.4128","OBJECT_ID":"2022-111W","RA_OF_ASC_NODE":"318.3446","TLE_LINE2":"2 53793  53.2193 318.3446 0001141  77.4128 282.6992 15.08847610 22706","GP_ID":"224199960","SEMIMAJOR_AXIS":"6917.857","REF_FRAME":"TEME","BSTAR":"-0.00000825280000","MEAN_MOTION_DDOT":"0.0000000000000","SITE":"AFETR","EPHEMERIS_TYPE":"0"}];
